OBJECT_NAME,OBJECT_ID,EPOCH,MEAN_MOTION,ECCENTRICITY,INCLINATION,RA_OF_ASC_NODE,ARG_OF_PERICENTER,MEAN_ANOMALY,EPHEMERIS_TYPE,CLASSIFICATION_TYPE,NORAD_CAT_ID,ELEMENT_SET_NO,REV_AT_EPOCH,BSTAR,MEAN_MOTION_DOT,MEAN_MOTION_DDOT
STARLINK-37695,2026-154F,2026-07-13T20:00:01.999008,15.91432750,.0001132,53.1590,299.8026,43.2148,111.4455,0,U,69824,999,245,-.44133E-2,-.1451583E-1,.59935E-3
STARLINK-37690,2026-154G,2026-07-13T20:00:01.999008,15.89814809,.0001038,53.1590,299.8045,57.3777,96.5063,0,U,69825,999,245,-.6405E-2,-.1697444E-1,0
STARLINK-37710,2026-154H,2026-07-13T20:00:01.999008,15.89934410,.0001127,53.1590,299.7973,65.0131,92.2472,0,U,69826,999,245,-.64042E-2,-.1706441E-1,0
STARLINK-38031,2026-154J,2026-07-13T20:00:01.999008,15.90049564,.0001125,53.1591,299.7905,59.7764,100.6558,0,U,69827,999,245,-.63105E-2,-.1693454E-1,0
STARLINK-38001,2026-154K,2026-07-13T20:00:01.999008,15.90176347,.0001046,53.1590,299.7842,61.9456,101.6133,0,U,69828,999,245,-.62655E-2,-.1692476E-1,0
STARLINK-37622,2026-154L,2026-07-13T20:00:01.999008,15.90297192,.0001119,53.1590,299.7777,62.1645,104.5424,0,U,69829,999,245,-.62003E-2,-.1686359E-1,0
STARLINK-37621,2026-154M,2026-07-13T20:00:01.999008,15.90430001,.0001137,53.1589,299.7717,60.1373,109.5219,0,U,69830,999,245,-.61329E-2,-.1680453E-1,0
STARLINK-37918,2026-154N,2026-07-13T20:00:01.999008,15.90576985,.0001121,53.1589,299.7656,62.9342,109.6268,0,U,69831,999,245,-.61287E-2,-.1690589E-1,0
STARLINK-37887,2026-154P,2026-07-13T20:00:01.999008,15.90716178,.0001154,53.1590,299.7595,61.2545,114.1801,0,U,69832,999,245,-.60798E-2,-.1920387E-1,.99588E-3
STARLINK-37624,2026-154Q,2026-07-13T20:00:01.999008,15.90820287,.0001063,53.1587,299.7526,61.6511,117.1736,0,U,69833,999,245,-.6059E-2,-.1923968E-1,.10003E-2
STARLINK-37769,2026-154R,2026-07-13T20:00:01.999008,15.90928848,.0001135,53.1588,299.7459,64.2475,117.8278,0,U,69834,999,245,-.60178E-2,-.1921582E-1,.99911E-3
STARLINK-37247,2026-154S,2026-07-13T20:00:01.999008,15.91051938,.0001112,53.1588,299.7393,67.8063,117.4250,0,U,69835,999,255,-.60088E-2,-.1930753E-1,.10092E-2
STARLINK-37569,2026-154T,2026-07-13T20:00:01.999008,15.91172347,.0001091,53.1586,299.7335,63.1972,124.8714,0,U,69836,999,245,-.58779E-2,-.1900792E-1,.98149E-3
STARLINK-37587,2026-154U,2026-07-13T20:00:01.999008,15.91267586,.0001145,53.1588,299.7260,66.8032,124.7875,0,U,69837,999,242,-.58823E-2,-.1911422E-1,.99263E-3
STARLINK-37590,2026-154V,2026-07-13T20:00:01.999008,15.91385995,.0001049,53.1587,299.7199,64.7018,129.9203,0,U,69838,999,229,-.58367E-2,-.1908216E-1,.9907E-3
STARLINK-37589,2026-154W,2026-07-13T20:00:01.999008,15.91498074,.0000964,53.1585,299.7133,63.1011,134.7372,0,U,69839,999,242,-.58103E-2,-.1910521E-1,.99402E-3
STARLINK-37487,2026-154X,2026-07-13T20:00:01.999008,15.98368585,.0000693,53.1581,299.4751,51.9624,259.8388,0,U,69840,999,242,-.31945E-2,-.1523923E-1,.70276E-3
STARLINK-37433,2026-154Y,2026-07-13T20:00:01.999008,15.98470376,.0000831,53.1582,299.4628,62.4281,255.2350,0,U,69841,999,255,-.32521E-2,-.15598E-1,.73424E-3
STARLINK-37588,2026-154Z,2026-07-13T20:00:01.999008,15.98568174,.0000814,53.1581,299.4496,63.5415,260.4098,0,U,69842,999,245,-.32643E-2,-.157408E-1,.74742E-3
STARLINK-37579,2026-154AA,2026-07-13T20:00:01.999008,15.98693958,.0000854,53.1582,299.4318,58.2404,274.1813,0,U,69843,999,245,-.33575E-2,-.1629738E-1,.79788E-3
STARLINK-37584,2026-154AB,2026-07-13T20:00:01.999008,15.98792234,.0000868,53.1583,299.4208,60.4728,277.0446,0,U,69844,999,245,-.33728E-2,-.1646009E-1,.8135E-3
STARLINK-37606,2026-154AC,2026-07-13T20:00:01.999008,15.98897668,.0000906,53.1580,299.4078,62.0403,281.6559,0,U,69845,999,245,-.33772E-2,-.1657848E-1,.82527E-3
STARLINK-37603,2026-154AD,2026-07-13T20:00:01.999008,15.99022058,.0000747,53.1580,299.3921,53.1715,297.9961,0,U,69846,999,245,-.34105E-2,-.1685583E-1,.85211E-3
STARLINK-37595,2026-154AE,2026-07-13T20:00:01.999008,15.99134953,.0000724,53.1579,299.3809,58.4302,297.8811,0,U,69847,999,245,-.34812E-2,-.1730891E-1,.89611E-3
CHUANG XIN 26 (CX-26),2026-158A,2026-07-13T12:20:46.071168,14.25122238,.0004887,49.9860,287.5119,294.2352,65.8050,0,U,69972,999,46,-.21871415E-4,-.212E-5,0
