STARLINK-37695          
1 69824U 26154F   26194.83335647 -.01451583  59935-3 -44133-2 0  9998
2 69824  53.1590 299.8026 0001132  43.2148 111.4455 15.91432750  2458
STARLINK-37690          
1 69825U 26154G   26194.83335647 -.01697444  00000+0 -64050-2 0  9992
2 69825  53.1590 299.8045 0001038  57.3777  96.5063 15.89814809  2453
STARLINK-37710          
1 69826U 26154H   26194.83335647 -.01706441  00000+0 -64042-2 0  9992
2 69826  53.1590 299.7973 0001127  65.0131  92.2472 15.89934410  2450
STARLINK-38031          
1 69827U 26154J   26194.83335647 -.01693454  00000+0 -63105-2 0  9991
2 69827  53.1591 299.7905 0001125  59.7764 100.6558 15.90049564  2455
STARLINK-38001          
1 69828U 26154K   26194.83335647 -.01692476  00000+0 -62655-2 0  9994
2 69828  53.1590 299.7842 0001046  61.9456 101.6133 15.90176347  2450
STARLINK-37622          
1 69829U 26154L   26194.83335647 -.01686359  00000+0 -62003-2 0  9995
2 69829  53.1590 299.7777 0001119  62.1645 104.5424 15.90297192  2459
STARLINK-37621          
1 69830U 26154M   26194.83335647 -.01680453  00000+0 -61329-2 0  9996
2 69830  53.1589 299.7717 0001137  60.1373 109.5219 15.90430001  2454
STARLINK-37918          
1 69831U 26154N   26194.83335647 -.01690589  00000+0 -61287-2 0  9991
2 69831  53.1589 299.7656 0001121  62.9342 109.6268 15.90576985  2453
STARLINK-37887          
1 69832U 26154P   26194.83335647 -.01920387  99588-3 -60798-2 0  9993
2 69832  53.1590 299.7595 0001154  61.2545 114.1801 15.90716178  2455
STARLINK-37624          
1 69833U 26154Q   26194.83335647 -.01923968  10003-2 -60590-2 0  9996
2 69833  53.1587 299.7526 0001063  61.6511 117.1736 15.90820287  2459
STARLINK-37769          
1 69834U 26154R   26194.83335647 -.01921582  99911-3 -60178-2 0  9995
2 69834  53.1588 299.7459 0001135  64.2475 117.8278 15.90928848  2454
STARLINK-37247          
1 69835U 26154S   26194.83335647 -.01930753  10092-2 -60088-2 0  9998
2 69835  53.1588 299.7393 0001112  67.8063 117.4250 15.91051938  2554
STARLINK-37569          
1 69836U 26154T   26194.83335647 -.01900792  98149-3 -58779-2 0  9993
2 69836  53.1586 299.7335 0001091  63.1972 124.8714 15.91172347  2457
STARLINK-37587          
1 69837U 26154U   26194.83335647 -.01911422  99263-3 -58823-2 0  9994
2 69837  53.1588 299.7260 0001145  66.8032 124.7875 15.91267586  2428
STARLINK-37590          
1 69838U 26154V   26194.83335647 -.01908216  99070-3 -58367-2 0  9991
2 69838  53.1587 299.7199 0001049  64.7018 129.9203 15.91385995  2295
STARLINK-37589          
1 69839U 26154W   26194.83335647 -.01910521  99402-3 -58103-2 0  9991
2 69839  53.1585 299.7133 0000964  63.1011 134.7372 15.91498074  2422
STARLINK-37487          
1 69840U 26154X   26194.83335647 -.01523923  70276-3 -31945-2 0  9992
2 69840  53.1581 299.4751 0000693  51.9624 259.8388 15.98368585  2423
STARLINK-37433          
1 69841U 26154Y   26194.83335647 -.01559800  73424-3 -32521-2 0  9995
2 69841  53.1582 299.4628 0000831  62.4281 255.2350 15.98470376  2553
STARLINK-37588          
1 69842U 26154Z   26194.83335647 -.01574080  74742-3 -32643-2 0  9992
2 69842  53.1581 299.4496 0000814  63.5415 260.4098 15.98568174  2458
STARLINK-37579          
1 69843U 26154AA  26194.83335647 -.01629738  79788-3 -33575-2 0  9994
2 69843  53.1582 299.4318 0000854  58.2404 274.1813 15.98693958  2452
STARLINK-37584          
1 69844U 26154AB  26194.83335647 -.01646009  81350-3 -33728-2 0  9993
2 69844  53.1583 299.4208 0000868  60.4728 277.0446 15.98792234  2452
STARLINK-37606          
1 69845U 26154AC  26194.83335647 -.01657848  82527-3 -33772-2 0  9993
2 69845  53.1580 299.4078 0000906  62.0403 281.6559 15.98897668  2459
STARLINK-37603          
1 69846U 26154AD  26194.83335647 -.01685583  85211-3 -34105-2 0  9995
2 69846  53.1580 299.3921 0000747  53.1715 297.9961 15.99022058  2457
STARLINK-37595          
1 69847U 26154AE  26194.83335647 -.01730891  89611-3 -34812-2 0  9992
2 69847  53.1579 299.3809 0000724  58.4302 297.8811 15.99134953  2457
CHUANG XIN 26 (CX-26)   
1 69972U 26158A   26194.51442212 -.00000212  00000+0 -21871-4 0  9997
2 69972  49.9860 287.5119 0004887 294.2352  65.8050 14.25122238   462
